start=new Date('2021-12-18T00:00:00.000Z').valueOf();
sats=[{"RA_OF_ASC_NODE":"157.8654","CLASSIFICATION_TYPE":"U","RCS_SIZE":"LARGE","ARG_OF_PERICENTER":"93.5421","OBJECT_ID":"2021-012AD","TLE_LINE2":"2 47647  53.0550 157.8654 0002169  93.5421 266.5816 15.06391904 47447","FILE":"3243045","SEMIMAJOR_AXIS":"6925.373","OBJECT_NAME":"STARLINK-2030","GP_ID":"191901896","OBJECT_TYPE":"PAYLOAD","MEAN_ANOMALY":"266.5816","NORAD_CAT_ID":"47647","REV_AT_EPOCH":"4744","CENTER_NAME":"EARTH","PERIAPSIS":"545.736","MEAN_ELEMENT_THEORY":"SGP4","MEAN_MOTION":"15.06391904","TIME_SYSTEM":"UTC","LAUNCH_DATE":"2021-02-16","APOAPSIS":"548.740","TLE_LINE1":"1 47647U 21012AD  21351.81270772  .00000902  00000-0  79494-4 0  9998","EPOCH":"2021-12-17T19:30:17.947008","INCLINATION":"53.0550","COUNTRY_CODE":"US","REF_FRAME":"TEME","ECCENTRICITY":"0.00021690","SITE":"AFETR","ELEMENT_SET_NO":"999","DECAY_DATE":null,"MEAN_MOTION_DDOT":"0.0000000000000","MEAN_MOTION_DOT":"0.00000902","EPHEMERIS_TYPE":"0","BSTAR":"0.00007949400000","PERIOD":"95.593"},{"EPHEMERIS_TYPE":"0","BSTAR":"0.00008684200000","PERIOD":"95.592","MEAN_MOTION_DDOT":"0.0000000000000","MEAN_MOTION_DOT":"0.00001012","SITE":"AFETR","ELEMENT_SET_NO":"999","DECAY_DATE":null,"REF_FRAME":"TEME","ECCENTRICITY":"0.00018950","EPOCH":"2021-12-17T19:17:00.382560","TLE_LINE1":"1 47648U 21012AE  21351.80347665  .00001012  00000-0  86842-4 0  9992","INCLINATION":"53.0554","COUNTRY_CODE":"US","APOAPSIS":"548.538","TIME_SYSTEM":"UTC","LAUNCH_DATE":"2021-02-16","MEAN_MOTION":"15.06396033","PERIAPSIS":"545.913","MEAN_ELEMENT_THEORY":"SGP4","NORAD_CAT_ID":"47648","REV_AT_EPOCH":"4772","CENTER_NAME":"EARTH","MEAN_ANOMALY":"270.5722","GP_ID":"191902146","OBJECT_TYPE":"PAYLOAD","TLE_LINE2":"2 47648  53.0554 137.9022 0001895  89.5484 270.5722 15.06396033 47729","SEMIMAJOR_AXIS":"6925.361","FILE":"3243045","OBJECT_NAME":"STARLINK-2031","CLASSIFICATION_TYPE":"U","ARG_OF_PERICENTER":"89.5484","RCS_SIZE":"MEDIUM","OBJECT_ID":"2021-012AE","RA_OF_ASC_NODE":"137.9022"},{"MEAN_MOTION":"15.06399240","LAUNCH_DATE":"2021-02-16","TIME_SYSTEM":"UTC","APOAPSIS":"548.807","COUNTRY_CODE":"US","TLE_LINE1":"1 47649U 21012AF  21351.80716811  .00001871  00000-0  14447-3 0  9990","EPOCH":"2021-12-17T19:22:19.324704","INCLINATION":"53.0543","ECCENTRICITY":"0.00022980","REF_FRAME":"TEME","DECAY_DATE":null,"ELEMENT_SET_NO":"999","SITE":"AFETR","MEAN_MOTION_DOT":"0.00001871","MEAN_MOTION_DDOT":"0.0000000000000","PERIOD":"95.592","BSTAR":"0.00014447000000","EPHEMERIS_TYPE":"0","RA_OF_ASC_NODE":"137.8913","ARG_OF_PERICENTER":"92.0887","RCS_SIZE":"LARGE","OBJECT_ID":"2021-012AF","CLASSIFICATION_TYPE":"U","OBJECT_NAME":"STARLINK-2032","FILE":"3243045","TLE_LINE2":"2 47649  53.0543 137.8913 0002298  92.0887 268.0365 15.06399240 47728","SEMIMAJOR_AXIS":"6925.351","OBJECT_TYPE":"PAYLOAD","GP_ID":"191903397","MEAN_ANOMALY":"268.0365","CENTER_NAME":"EARTH","NORAD_CAT_ID":"47649","REV_AT_EPOCH":"4772","MEAN_ELEMENT_THEORY":"SGP4","PERIAPSIS":"545.624"},{"MEAN_ANOMALY":"269.3261","REV_AT_EPOCH":"4771","NORAD_CAT_ID":"47650","CENTER_NAME":"EARTH","PERIAPSIS":"545.878","MEAN_ELEMENT_THEORY":"SGP4","RA_OF_ASC_NODE":"137.6605","CLASSIFICATION_TYPE":"U","OBJECT_ID":"2021-012AG","ARG_OF_PERICENTER":"90.7946","RCS_SIZE":"LARGE","TLE_LINE2":"2 47650  53.0531 137.6605 0001904  90.7946 269.3261 15.06405676 47716","FILE":"3243045","SEMIMAJOR_AXIS":"6925.331","OBJECT_NAME":"STARLINK-2033","GP_ID":"191903648","OBJECT_TYPE":"PAYLOAD","REF_FRAME":"TEME","ECCENTRICITY":"0.00019040","SITE":"AFETR","ELEMENT_SET_NO":"999","DECAY_DATE":null,"MEAN_MOTION_DDOT":"0.0000000000000","MEAN_MOTION_DOT":"0.00002440","EPHEMERIS_TYPE":"0","BSTAR":"0.00018265000000","PERIOD":"95.592","MEAN_MOTION":"15.06405676","TIME_SYSTEM":"UTC","LAUNCH_DATE":"2021-02-16","APOAPSIS":"548.515","INCLINATION":"53.0531","TLE_LINE1":"1 47650U 21012AG  21351.85875782  .00002440  00000-0  18265-3 0  9995","EPOCH":"2021-12-17T20:36:36.675648","COUNTRY_CODE":"US"},{"RA_OF_ASC_NODE":"157.8073","ARG_OF_PERICENTER":"92.3058","RCS_SIZE":"LARGE","OBJECT_ID":"2021-012AH","CLASSIFICATION_TYPE":"U","OBJECT_NAME":"STARLINK-2035","SEMIMAJOR_AXIS":"6925.342","TLE_LINE2":"2 47651  53.0542 157.8073 0002672  92.3058 267.8237 15.06402196 47447","FILE":"3243045","OBJECT_TYPE":"PAYLOAD","GP_ID":"191902396","MEAN_ANOMALY":"267.8237","CENTER_NAME":"EARTH","NORAD_CAT_ID":"47651","REV_AT_EPOCH":"4744","MEAN_ELEMENT_THEORY":"SGP4","PERIAPSIS":"545.356","MEAN_MOTION":"15.06402196","LAUNCH_DATE":"2021-02-16","TIME_SYSTEM":"UTC","APOAPSIS":"549.057","COUNTRY_CODE":"US","TLE_LINE1":"1 47651U 21012AH  21351.82651376  .00001296  00000-0  10588-3 0  9992","EPOCH":"2021-12-17T19:50:10.788864","INCLINATION":"53.0542","ECCENTRICITY":"0.00026720","REF_FRAME":"TEME","DECAY_DATE":null,"ELEMENT_SET_NO":"999","SITE":"AFETR","MEAN_MOTION_DDOT":"0.0000000000000","MEAN_MOTION_DOT":"0.00001296","PERIOD":"95.592","EPHEMERIS_TYPE":"0","BSTAR":"0.00010588000000"},{"OBJECT_NAME":"STARLINK-2036","FILE":"3243045","TLE_LINE2":"2 47652  53.0548 157.6813 0002240  90.0068 270.1178 15.06396202 47442","SEMIMAJOR_AXIS":"6925.360","OBJECT_TYPE":"PAYLOAD","GP_ID":"191902646","RA_OF_ASC_NODE":"157.6813","OBJECT_ID":"2021-012AJ","RCS_SIZE":"LARGE","ARG_OF_PERICENTER":"90.0068","CLASSIFICATION_TYPE":"U","MEAN_ELEMENT_THEORY":"SGP4","PERIAPSIS":"545.674","MEAN_ANOMALY":"270.1178","CENTER_NAME":"EARTH","REV_AT_EPOCH":"4744","NORAD_CAT_ID":"47652","APOAPSIS":"548.776","COUNTRY_CODE":"US","INCLINATION":"53.0548","EPOCH":"2021-12-17T20:28:39.599904","TLE_LINE1":"1 47652U 21012AJ  21351.85323611 -.00000894  00000-0 -41077-4 0  9997","MEAN_MOTION":"15.06396202","LAUNCH_DATE":"2021-02-16","TIME_SYSTEM":"UTC","MEAN_MOTION_DOT":"-0.00000894","MEAN_MOTION_DDOT":"0.0000000000000","PERIOD":"95.592","EPHEMERIS_TYPE":"0","BSTAR":"-0.00004107700000","ECCENTRICITY":"0.00022400","REF_FRAME":"TEME","DECAY_DATE":null,"ELEMENT_SET_NO":"999","SITE":"AFETR"},{"RA_OF_ASC_NODE":"137.6979","CLASSIFICATION_TYPE":"U","ARG_OF_PERICENTER":"90.9583","RCS_SIZE":"LARGE","OBJECT_ID":"2021-012AK","TLE_LINE2":"2 47653  53.0543 137.6979 0001780  90.9583 269.1609 15.06395554 47714","SEMIMAJOR_AXIS":"6925.362","FILE":"3243045","OBJECT_NAME":"STARLINK-2037","GP_ID":"191902898","OBJECT_TYPE":"PAYLOAD","MEAN_ANOMALY":"269.1609","NORAD_CAT_ID":"47653","REV_AT_EPOCH":"4771","CENTER_NAME":"EARTH","PERIAPSIS":"545.994","MEAN_ELEMENT_THEORY":"SGP4","MEAN_MOTION":"15.06395554","TIME_SYSTEM":"UTC","LAUNCH_DATE":"2021-02-16","APOAPSIS":"548.460","EPOCH":"2021-12-17T20:20:41.608320","TLE_LINE1":"1 47653U 21012AK  21351.84770380 -.00000348  00000-0 -44573-5 0  9995","INCLINATION":"53.0543","COUNTRY_CODE":"US","REF_FRAME":"TEME","ECCENTRICITY":"0.00017800","SITE":"AFETR","DECAY_DATE":null,"ELEMENT_SET_NO":"999","MEAN_MOTION_DDOT":"0.0000000000000","MEAN_MOTION_DOT":"-0.00000348","BSTAR":"-0.00000445730000","EPHEMERIS_TYPE":"0","PERIOD":"95.592"},{"MEAN_ANOMALY":"267.7585","NORAD_CAT_ID":"47654","REV_AT_EPOCH":"4744","CENTER_NAME":"EARTH","PERIAPSIS":"545.362","MEAN_ELEMENT_THEORY":"SGP4","RA_OF_ASC_NODE":"157.6541","CLASSIFICATION_TYPE":"U","RCS_SIZE":"LARGE","ARG_OF_PERICENTER":"92.3697","OBJECT_ID":"2021-012AL","SEMIMAJOR_AXIS":"6925.270","TLE_LINE2":"2 47654  53.0544 157.6541 0002561  92.3697 267.7585 15.06425493 47446","FILE":"3243045","OBJECT_NAME":"STARLINK-2038","GP_ID":"191903149","OBJECT_TYPE":"PAYLOAD","REF_FRAME":"TEME","ECCENTRICITY":"0.00025610","SITE":"AFETR","ELEMENT_SET_NO":"999","DECAY_DATE":null,"MEAN_MOTION_DDOT":"0.0000000000000","MEAN_MOTION_DOT":"-0.00003839","EPHEMERIS_TYPE":"0","BSTAR":"-0.00023876000000","PERIOD":"95.591","MEAN_MOTION":"15.06425493","TIME_SYSTEM":"UTC","LAUNCH_DATE":"2021-02-16","APOAPSIS":"548.909","TLE_LINE1":"1 47654U 21012AL  21351.85691214 -.00003839  00000-0 -23876-3 0  9994","EPOCH":"2021-12-17T20:33:57.208896","INCLINATION":"53.0544","COUNTRY_CODE":"US"},{"GP_ID":"191901897","OBJECT_TYPE":"PAYLOAD","FILE":"3243045","TLE_LINE2":"2 47655  53.0544 157.6941 0002388  89.7149 270.4114 15.06395213 47445","SEMIMAJOR_AXIS":"6925.363","OBJECT_NAME":"STARLINK-2039","CLASSIFICATION_TYPE":"U","OBJECT_ID":"2021-012AM","ARG_OF_PERICENTER":"89.7149","RCS_SIZE":"LARGE","RA_OF_ASC_NODE":"157.6941","PERIAPSIS":"545.574","MEAN_ELEMENT_THEORY":"SGP4","REV_AT_EPOCH":"4744","NORAD_CAT_ID":"47655","CENTER_NAME":"EARTH","MEAN_ANOMALY":"270.4114","INCLINATION":"53.0544","TLE_LINE1":"1 47655U 21012AM  21351.84958426  .00000776  00000-0  71002-4 0  9995","EPOCH":"2021-12-17T20:23:24.080064","COUNTRY_CODE":"US","APOAPSIS":"548.882","TIME_SYSTEM":"UTC","LAUNCH_DATE":"2021-02-16","MEAN_MOTION":"15.06395213","BSTAR":"0.00007100200000","EPHEMERIS_TYPE":"0","PERIOD":"95.592","MEAN_MOTION_DDOT":"0.0000000000000","MEAN_MOTION_DOT":"0.00000776","SITE":"AFETR","DECAY_DATE":null,"ELEMENT_SET_NO":"999","REF_FRAME":"TEME","ECCENTRICITY":"0.00023880"},{"PERIAPSIS":"545.978","MEAN_ELEMENT_THEORY":"SGP4","NORAD_CAT_ID":"47656","REV_AT_EPOCH":"4771","CENTER_NAME":"EARTH","MEAN_ANOMALY":"269.8826","GP_ID":"191902147","OBJECT_TYPE":"PAYLOAD","TLE_LINE2":"2 47656  53.0551 137.9130 0001798  90.2369 269.8826 15.06396926 47714","FILE":"3243045","SEMIMAJOR_AXIS":"6925.358","OBJECT_NAME":"STARLINK-2040","CLASSIFICATION_TYPE":"U","RCS_SIZE":"LARGE","ARG_OF_PERICENTER":"90.2369","OBJECT_ID":"2021-012AN","RA_OF_ASC_NODE":"137.9130","EPHEMERIS_TYPE":"0","BSTAR":"0.00000287430000","PERIOD":"95.592","MEAN_MOTION_DDOT":"0.0000000000000","MEAN_MOTION_DOT":"-0.00000239","SITE":"AFETR","DECAY_DATE":null,"ELEMENT_SET_NO":"999","REF_FRAME":"TEME","ECCENTRICITY":"0.00017980","EPOCH":"2021-12-17T19:11:41.459424","TLE_LINE1":"1 47656U 21012AN  21351.79978541 -.00000239  00000-0  28743-5 0  9990","INCLINATION":"53.0551","COUNTRY_CODE":"US","APOAPSIS":"548.468","TIME_SYSTEM":"UTC","LAUNCH_DATE":"2021-02-16","MEAN_MOTION":"15.06396926"}];
